{"type": "FeatureCollection", "features": [ {"type": "Feature", "properties": {"norad_id": 52912, "name": "GAOFEN-12 03", "group": "resource", "lat": 10.157857704321112, "lon": 68.8458935596706, "alt_km": 632.7583355862016, "timestamp": "2025-12-26T09:30:53.285765+00:00", "meta": {"OBJECT_NAME": "GAOFEN-12 03", "OBJECT_ID": "2022-069A", "EPOCH": "2025-12-26T03:52:54.244416", "MEAN_MOTION": 14.79640191, "ECCENTRICITY": 0.0001784, "INCLINATION": 97.8475, "RA_OF_ASC_NODE": 247.2007, "ARG_OF_PERICENTER": 46.6607, "MEAN_ANOMALY": 313.4753, "EPHEMERIS_TYPE": 0, "CLASSIFICATION_TYPE": "U", "NORAD_CAT_ID": 52912, "ELEMENT_SET_NO": 999, "REV_AT_EPOCH": 18902, "BSTAR": 0.00015036, "MEAN_MOTION_DOT": 1.077e-05, "MEAN_MOTION_DDOT": 0}, "tle": {"line1": "1 52912U 22069A   25360.16173894  .00001077  00000+0  15036-3 0  9995", "line2": "2 52912  97.8475 247.2007 0001784  46.6607 313.4753 14.79640191189020"}}, "geometry": {"type": "Point", "coordinates": [68.8458935596706, 10.157857704321112]}}, {"type": "Feature", "properties": {"norad_id": 54754, "name": "SWOT", "group": "resource", "lat": -29.31619857650646, "lon": 95.64552655467156, "alt_km": 899.0902914087346, "timestamp": "2025-12-26T09:30:53.285776+00:00", "meta": {"OBJECT_NAME": "SWOT", "OBJECT_ID": "2022-173A", "EPOCH": "2025-12-26T03:22:13.445760", "MEAN_MOTION": 14.00168881, "ECCENTRICITY": 4.25e-05, "INCLINATION": 77.6108, "RA_OF_ASC_NODE": 268.9009, "ARG_OF_PERICENTER": 81.7093, "MEAN_ANOMALY": 278.4106, "EPHEMERIS_TYPE": 0, "CLASSIFICATION_TYPE": "U", "NORAD_CAT_ID": 54754, "ELEMENT_SET_NO": 999, "REV_AT_EPOCH": 15493, "BSTAR": 8.9632e-05, "MEAN_MOTION_DOT": 1.3e-06, "MEAN_MOTION_DDOT": 0}, "tle": {"line1": "1 54754U 22173A   25360.14043340  .00000130  00000+0  89632-4 0  9990", "line2": "2 54754  77.6108 268.9009 0000425  81.7093 278.4106 14.00168881154936"}}, "geometry": {"type": "Point", "coordinates": [95.64552655467156, -29.31619857650646]}}, {"type": "Feature", "properties": {"norad_id": 57654, "name": "GAOFEN-12 04", "group": "resource", "lat": -16.0514113169326, "lon": -81.7595072723701, "alt_km": 635.0879035082426, "timestamp": "2025-12-26T09:30:53.285786+00:00", "meta": {"OBJECT_NAME": "GAOFEN-12 04", "OBJECT_ID": "2023-123A", "EPOCH": "2025-12-26T04:43:09.099840", "MEAN_MOTION": 14.79737858, "ECCENTRICITY": 0.0001202, "INCLINATION": 97.9129, "RA_OF_ASC_NODE": 275.7503, "ARG_OF_PERICENTER": 80.5679, "MEAN_ANOMALY": 279.5668, "EPHEMERIS_TYPE": 0, "CLASSIFICATION_TYPE": "U", "NORAD_CAT_ID": 57654, "ELEMENT_SET_NO": 999, "REV_AT_EPOCH": 12704, "BSTAR": 0.00018795, "MEAN_MOTION_DOT": 1.361e-05, "MEAN_MOTION_DDOT": 0}, "tle": {"line1": "1 57654U 23123A   25360.19663310  .00001361  00000+0  18795-3 0  9996", "line2": "2 57654  97.9129 275.7503 0001202  80.5679 279.5668 14.79737858127041"}}, "geometry": {"type": "Point", "coordinates": [-81.7595072723701, -16.0514113169326]}}, {"type": "Feature", "properties": {"norad_id": 59065, "name": "PARS 1", "group": "resource", "lat": 24.971469237401088, "lon": 155.1237896675402, "alt_km": 446.11328404003416, "timestamp": "2025-12-26T09:30:53.285796+00:00", "meta": {"OBJECT_NAME": "PARS 1", "OBJECT_ID": "2024-039Q", "EPOCH": "2025-12-26T04:10:19.509888", "MEAN_MOTION": 15.41280087, "ECCENTRICITY": 0.0011429, "INCLINATION": 97.4655, "RA_OF_ASC_NODE": 331.3951, "ARG_OF_PERICENTER": 30.9614, "MEAN_ANOMALY": 329.2304, "EPHEMERIS_TYPE": 0, "CLASSIFICATION_TYPE": "U", "NORAD_CAT_ID": 59065, "ELEMENT_SET_NO": 999, "REV_AT_EPOCH": 10195, "BSTAR": 0.00029866, "MEAN_MOTION_DOT": 0.00012374, "MEAN_MOTION_DDOT": 0}, "tle": {"line1": "1 59065U 24039Q   25360.17383692  .00012374  00000+0  29866-3 0  9998", "line2": "2 59065  97.4655 331.3951 0011429  30.9614 329.2304 15.41280087101953"}}, "geometry": {"type": "Point", "coordinates": [155.1237896675402, 24.971469237401088]}}, {"type": "Feature", "properties": {"norad_id": 59371, "name": "RESURS-P 4", "group": "resource", "lat": -35.12140197743678, "lon": 121.30671359647503, "alt_km": 475.92998162249205, "timestamp": "2025-12-26T09:30:53.285806+00:00", "meta": {"OBJECT_NAME": "RESURS-P 4", "OBJECT_ID": "2024-061A", "EPOCH": "2025-12-26T03:52:32.494944", "MEAN_MOTION": 15.32203082, "ECCENTRICITY": 7.99e-05, "INCLINATION": 97.2563, "RA_OF_ASC_NODE": 306.2183, "ARG_OF_PERICENTER": 87.6126, "MEAN_ANOMALY": 272.5208, "EPHEMERIS_TYPE": 0, "CLASSIFICATION_TYPE": "U", "NORAD_CAT_ID": 59371, "ELEMENT_SET_NO": 999, "REV_AT_EPOCH": 9726, "BSTAR": 0.00013343, "MEAN_MOTION_DOT": 4.072e-05, "MEAN_MOTION_DDOT": 0}, "tle": {"line1": "1 59371U 24061A   25360.16148721  .00004072  00000+0  13343-3 0  9993", "line2": "2 59371  97.2563 306.2183 0000799  87.6126 272.5208 15.32203082 97263"}}, "geometry": {"type": "Point", "coordinates": [121.30671359647503, -35.12140197743678]}}, {"type": "Feature", "properties": {"norad_id": 59625, "name": "LEGION 1", "group": "resource", "lat": 34.66387403050399, "lon": 69.67759732041198, "alt_km": 515.8367466929003, "timestamp": "2025-12-26T09:30:53.285816+00:00", "meta": {"OBJECT_NAME": "LEGION 1", "OBJECT_ID": "2024-081A", "EPOCH": "2025-12-26T03:01:37.020288", "MEAN_MOTION": 15.16609572, "ECCENTRICITY": 0.0003627, "INCLINATION": 97.5193, "RA_OF_ASC_NODE": 74.6502, "ARG_OF_PERICENTER": 254.7303, "MEAN_ANOMALY": 105.3529, "EPHEMERIS_TYPE": 0, "CLASSIFICATION_TYPE": "U", "NORAD_CAT_ID": 59625, "ELEMENT_SET_NO": 999, "REV_AT_EPOCH": 9130, "BSTAR": 0.00024192, "MEAN_MOTION_DOT": 4.661e-05, "MEAN_MOTION_DDOT": 0}, "tle": {"line1": "1 59625U 24081A   25360.12612292  .00004661  00000+0  24192-3 0  9990", "line2": "2 59625  97.5193  74.6502 0003627 254.7303 105.3529 15.16609572 91309"}}, "geometry": {"type": "Point", "coordinates": [69.67759732041198, 34.66387403050399]}}, {"type": "Feature", "properties": {"norad_id": 59626, "name": "LEGION 2", "group": "resource", "lat": -35.20210173352096, "lon": -110.34076824748908, "alt_km": 518.5990093534683, "timestamp": "2025-12-26T09:30:53.285827+00:00", "meta": {"OBJECT_NAME": "LEGION 2", "OBJECT_ID": "2024-081B", "EPOCH": "2025-12-26T03:49:01.030080", "MEAN_MOTION": 15.16623779, "ECCENTRICITY": 0.0005822, "INCLINATION": 97.5196, "RA_OF_ASC_NODE": 74.7709, "ARG_OF_PERICENTER": 235.8541, "MEAN_ANOMALY": 124.214, "EPHEMERIS_TYPE": 0, "CLASSIFICATION_TYPE": "U", "NORAD_CAT_ID": 59626, "ELEMENT_SET_NO": 999, "REV_AT_EPOCH": 9131, "BSTAR": 0.00029057, "MEAN_MOTION_DOT": 5.615e-05, "MEAN_MOTION_DDOT": 0}, "tle": {"line1": "1 59626U 24081B   25360.15903970  .00005615  00000+0  29057-3 0  9995", "line2": "2 59626  97.5196  74.7709 0005822 235.8541 124.2140 15.16623779 91311"}}, "geometry": {"type": "Point", "coordinates": [-110.34076824748908, -35.20210173352096]}}, {"type": "Feature", "properties": {"norad_id": 60182, "name": "ALOS-4 (DAICHI-4)", "group": "resource", "lat": -32.11748595072961, "lon": -89.96568642202654, "alt_km": 637.4641435534477, "timestamp": "2025-12-26T09:30:53.285837+00:00", "meta": {"OBJECT_NAME": "ALOS-4 (DAICHI-4)", "OBJECT_ID": "2024-123A", "EPOCH": "2025-12-26T05:18:41.872608", "MEAN_MOTION": 14.79474592, "ECCENTRICITY": 0.0001403, "INCLINATION": 97.9216, "RA_OF_ASC_NODE": 94.876, "ARG_OF_PERICENTER": 100.7354, "MEAN_ANOMALY": 259.4015, "EPHEMERIS_TYPE": 0, "CLASSIFICATION_TYPE": "U", "NORAD_CAT_ID": 60182, "ELEMENT_SET_NO": 999, "REV_AT_EPOCH": 8030, "BSTAR": 0.00029406, "MEAN_MOTION_DOT": 2.145e-05, "MEAN_MOTION_DDOT": 0}, "tle": {"line1": "1 60182U 24123A   25360.22131797  .00002145  00000+0  29406-3 0  9992", "line2": "2 60182  97.9216  94.8760 0001403 100.7354 259.4015 14.79474592 80304"}}, "geometry": {"type": "Point", "coordinates": [-89.96568642202654, -32.11748595072961]}}, {"type": "Feature", "properties": {"norad_id": 60452, "name": "LEGION 3", "group": "resource", "lat": -4.909449043208311, "lon": -128.01767644086794, "alt_km": 517.2882558102165, "timestamp": "2025-12-26T09:30:53.285847+00:00", "meta": {"OBJECT_NAME": "LEGION 3", "OBJECT_ID": "2024-146A", "EPOCH": "2025-12-26T01:38:14.896608", "MEAN_MOTION": 15.15894786, "ECCENTRICITY": 0.0015767, "INCLINATION": 45.0002, "RA_OF_ASC_NODE": 238.6741, "ARG_OF_PERICENTER": 269.5324, "MEAN_ANOMALY": 90.3748, "EPHEMERIS_TYPE": 0, "CLASSIFICATION_TYPE": "U", "NORAD_CAT_ID": 60452, "ELEMENT_SET_NO": 999, "REV_AT_EPOCH": 7575, "BSTAR": 0.00028452, "MEAN_MOTION_DOT": 5.294e-05, "MEAN_MOTION_DDOT": 0}, "tle": {"line1": "1 60452U 24146A   25360.06822797  .00005294  00000+0  28452-3 0  9994", "line2": "2 60452  45.0002 238.6741 0015767 269.5324  90.3748 15.15894786 75757"}}, "geometry": {"type": "Point", "coordinates": [-128.01767644086794, -4.909449043208311]}}, {"type": "Feature", "properties": {"norad_id": 60453, "name": "LEGION 4", "group": "resource", "lat": -5.200566547581135, "lon": -36.513808133931654, "alt_km": 514.1783257856277, "timestamp": "2025-12-26T09:30:53.285858+00:00", "meta": {"OBJECT_NAME": "LEGION 4", "OBJECT_ID": "2024-146B", "EPOCH": "2025-12-26T03:13:15.917664", "MEAN_MOTION": 15.15969113, "ECCENTRICITY": 0.0007962, "INCLINATION": 45.0397, "RA_OF_ASC_NODE": 330.1107, "ARG_OF_PERICENTER": 26.1315, "MEAN_ANOMALY": 333.9965, "EPHEMERIS_TYPE": 0, "CLASSIFICATION_TYPE": "U", "NORAD_CAT_ID": 60453, "ELEMENT_SET_NO": 999, "REV_AT_EPOCH": 7461, "BSTAR": 0.00032127, "MEAN_MOTION_DOT": 6.014e-05, "MEAN_MOTION_DDOT": 0}, "tle": {"line1": "1 60453U 24146B   25360.13421201  .00006014  00000+0  32127-3 0  9993", "line2": "2 60453  45.0397 330.1107 0007962  26.1315 333.9965 15.15969113 74612"}}, "geometry": {"type": "Point", "coordinates": [-36.513808133931654, -5.200566547581135]}}]}